CCSDS_OMM_VERS = 2.0
CREATION_DATE  = 
ORIGINATOR     = 

OBJECT_NAME    = 2026-027H
OBJECT_ID      = 2026-027H
CENTER_NAME    = EARTH
REF_FRAME      = TEME
TIME_SYSTEM    = UTC
MEAN_ELEMENT_THEORY = SGP/SGP4

EPOCH          = 2026-03-01T19:19:47.432640
MEAN_MOTION    = 15.68342857
ECCENTRICITY   = .0237955
INCLINATION    = 97.5125
RA_OF_ASC_NODE = 191.2168
ARG_OF_PERICENTER = 273.9182
MEAN_ANOMALY   = 83.4908

EPHEMERIS_TYPE = 0
CLASSIFICATION_TYPE = U
NORAD_CAT_ID   = 67753
ELEMENT_SET_NO = 999
REV_AT_EPOCH   = 274
BSTAR          = .64923E-3
MEAN_MOTION_DOT = .407597E-2
MEAN_MOTION_DDOT = .23752E-5

CCSDS_OMM_VERS = 2.0
CREATION_DATE  = 
ORIGINATOR     = 

OBJECT_NAME    = 2026-027J
OBJECT_ID      = 2026-027J
CENTER_NAME    = EARTH
REF_FRAME      = TEME
TIME_SYSTEM    = UTC
MEAN_ELEMENT_THEORY = SGP/SGP4

EPOCH          = 2026-03-01T20:15:28.843776
MEAN_MOTION    = 15.86791168
ECCENTRICITY   = .0178164
INCLINATION    = 97.5072
RA_OF_ASC_NODE = 191.4692
ARG_OF_PERICENTER = 272.5948
MEAN_ANOMALY   = 85.4939

EPHEMERIS_TYPE = 0
CLASSIFICATION_TYPE = U
NORAD_CAT_ID   = 67754
ELEMENT_SET_NO = 999
REV_AT_EPOCH   = 270
BSTAR          = .12959E-2
MEAN_MOTION_DOT = .131897E-1
MEAN_MOTION_DDOT = .24356E-5

CCSDS_OMM_VERS = 2.0
CREATION_DATE  = 
ORIGINATOR     = 

OBJECT_NAME    = 2026-028A
OBJECT_ID      = 2026-028A
CENTER_NAME    = EARTH
REF_FRAME      = TEME
TIME_SYSTEM    = UTC
MEAN_ELEMENT_THEORY = SGP/SGP4

EPOCH          = 2026-03-01T07:23:21.056640
MEAN_MOTION    = 0.99524685
ECCENTRICITY   = .0042017
INCLINATION    = 0.4902
RA_OF_ASC_NODE = 289.3238
ARG_OF_PERICENTER = 229.5239
MEAN_ANOMALY   = 201.2888

EPHEMERIS_TYPE = 0
CLASSIFICATION_TYPE = U
NORAD_CAT_ID   = 67756
ELEMENT_SET_NO = 999
REV_AT_EPOCH   = 17
BSTAR          = 0
MEAN_MOTION_DOT = -.93E-6
MEAN_MOTION_DDOT = 0

CCSDS_OMM_VERS = 2.0
CREATION_DATE  = 
ORIGINATOR     = 

OBJECT_NAME    = KUIPER-00159
OBJECT_ID      = 2026-030A
CENTER_NAME    = EARTH
REF_FRAME      = TEME
TIME_SYSTEM    = UTC
MEAN_ELEMENT_THEORY = SGP/SGP4

EPOCH          = 2026-03-01T19:44:24.149472
MEAN_MOTION    = 15.35345712
ECCENTRICITY   = .0004074
INCLINATION    = 51.8833
RA_OF_ASC_NODE = 257.0964
ARG_OF_PERICENTER = 26.7616
MEAN_ANOMALY   = 333.3579

EPHEMERIS_TYPE = 0
CLASSIFICATION_TYPE = U
NORAD_CAT_ID   = 67764
ELEMENT_SET_NO = 999
REV_AT_EPOCH   = 388
BSTAR          = .99377E-3
MEAN_MOTION_DOT = .34419E-3
MEAN_MOTION_DDOT = 0

CCSDS_OMM_VERS = 2.0
CREATION_DATE  = 
ORIGINATOR     = 

OBJECT_NAME    = KUIPER-00160
OBJECT_ID      = 2026-030B
CENTER_NAME    = EARTH
REF_FRAME      = TEME
TIME_SYSTEM    = UTC
MEAN_ELEMENT_THEORY = SGP/SGP4

EPOCH          = 2026-03-01T18:11:57.139872
MEAN_MOTION    = 15.35261209
ECCENTRICITY   = .0004231
INCLINATION    = 51.8796
RA_OF_ASC_NODE = 257.4087
ARG_OF_PERICENTER = 36.9388
MEAN_ANOMALY   = 323.1888

EPHEMERIS_TYPE = 0
CLASSIFICATION_TYPE = U
NORAD_CAT_ID   = 67765
ELEMENT_SET_NO = 999
REV_AT_EPOCH   = 387
BSTAR          = .99581E-3
MEAN_MOTION_DOT = .34398E-3
MEAN_MOTION_DDOT = 0

CCSDS_OMM_VERS = 2.0
CREATION_DATE  = 
ORIGINATOR     = 

OBJECT_NAME    = KUIPER-00177
OBJECT_ID      = 2026-030C
CENTER_NAME    = EARTH
REF_FRAME      = TEME
TIME_SYSTEM    = UTC
MEAN_ELEMENT_THEORY = SGP/SGP4

EPOCH          = 2026-03-01T19:31:11.753472
MEAN_MOTION    = 15.36123093
ECCENTRICITY   = .0000453
INCLINATION    = 51.8824
RA_OF_ASC_NODE = 257.0344
ARG_OF_PERICENTER = 21.7654
MEAN_ANOMALY   = 338.3352

EPHEMERIS_TYPE = 0
CLASSIFICATION_TYPE = U
NORAD_CAT_ID   = 67766
ELEMENT_SET_NO = 999
REV_AT_EPOCH   = 388
BSTAR          = .99066E-3
MEAN_MOTION_DOT = .3518E-3
MEAN_MOTION_DDOT = 0

CCSDS_OMM_VERS = 2.0
CREATION_DATE  = 
ORIGINATOR     = 

OBJECT_NAME    = KUIPER-00178
OBJECT_ID      = 2026-030D
CENTER_NAME    = EARTH
REF_FRAME      = TEME
TIME_SYSTEM    = UTC
MEAN_ELEMENT_THEORY = SGP/SGP4

EPOCH          = 2026-03-01T18:14:09.171168
MEAN_MOTION    = 15.35134075
ECCENTRICITY   = .0005604
INCLINATION    = 51.8820
RA_OF_ASC_NODE = 257.4235
ARG_OF_PERICENTER = 25.4211
MEAN_ANOMALY   = 334.7050

EPHEMERIS_TYPE = 0
CLASSIFICATION_TYPE = U
NORAD_CAT_ID   = 67767
ELEMENT_SET_NO = 999
REV_AT_EPOCH   = 387
BSTAR          = .11053E-2
MEAN_MOTION_DOT = .38092E-3
MEAN_MOTION_DDOT = 0

CCSDS_OMM_VERS = 2.0
CREATION_DATE  = 
ORIGINATOR     = 

OBJECT_NAME    = KUIPER-00180
OBJECT_ID      = 2026-030E
CENTER_NAME    = EARTH
REF_FRAME      = TEME
TIME_SYSTEM    = UTC
MEAN_ELEMENT_THEORY = SGP/SGP4

EPOCH          = 2026-03-01T20:21:31.633920
MEAN_MOTION    = 15.32359719
ECCENTRICITY   = .0015052
INCLINATION    = 51.8809
RA_OF_ASC_NODE = 257.2536
ARG_OF_PERICENTER = 46.3481
MEAN_ANOMALY   = 313.8749

EPHEMERIS_TYPE = 0
CLASSIFICATION_TYPE = U
NORAD_CAT_ID   = 67768
ELEMENT_SET_NO = 999
REV_AT_EPOCH   = 388
BSTAR          = -.17532E-3
MEAN_MOTION_DOT = -.5954E-4
MEAN_MOTION_DDOT = 0

CCSDS_OMM_VERS = 2.0
CREATION_DATE  = 
ORIGINATOR     = 

OBJECT_NAME    = KUIPER-00197
OBJECT_ID      = 2026-030F
CENTER_NAME    = EARTH
REF_FRAME      = TEME
TIME_SYSTEM    = UTC
MEAN_ELEMENT_THEORY = SGP/SGP4

EPOCH          = 2026-03-01T18:00:10.653120
MEAN_MOTION    = 15.35997587
ECCENTRICITY   = .0001116
INCLINATION    = 51.8822
RA_OF_ASC_NODE = 257.3602
ARG_OF_PERICENTER = 64.1196
MEAN_ANOMALY   = 295.9905

EPHEMERIS_TYPE = 0
CLASSIFICATION_TYPE = U
NORAD_CAT_ID   = 67769
ELEMENT_SET_NO = 999
REV_AT_EPOCH   = 387
BSTAR          = .91416E-3
MEAN_MOTION_DOT = .3229E-3
MEAN_MOTION_DDOT = 0

CCSDS_OMM_VERS = 2.0
CREATION_DATE  = 
ORIGINATOR     = 

OBJECT_NAME    = KUIPER-00198
OBJECT_ID      = 2026-030G
CENTER_NAME    = EARTH
REF_FRAME      = TEME
TIME_SYSTEM    = UTC
MEAN_ELEMENT_THEORY = SGP/SGP4

EPOCH          = 2026-03-01T18:05:57.321888
MEAN_MOTION    = 15.35637237
ECCENTRICITY   = .0002671
INCLINATION    = 51.8798
RA_OF_ASC_NODE = 257.3823
ARG_OF_PERICENTER = 32.8521
MEAN_ANOMALY   = 327.2631

EPHEMERIS_TYPE = 0
CLASSIFICATION_TYPE = U
NORAD_CAT_ID   = 67770
ELEMENT_SET_NO = 999
REV_AT_EPOCH   = 387
BSTAR          = .7414E-3
MEAN_MOTION_DOT = .25791E-3
MEAN_MOTION_DDOT = 0

CCSDS_OMM_VERS = 2.0
CREATION_DATE  = 
ORIGINATOR     = 

OBJECT_NAME    = KUIPER-00199
OBJECT_ID      = 2026-030H
CENTER_NAME    = EARTH
REF_FRAME      = TEME
TIME_SYSTEM    = UTC
MEAN_ELEMENT_THEORY = SGP/SGP4

EPOCH          = 2026-03-01T20:05:24.888768
MEAN_MOTION    = 15.34013883
ECCENTRICITY   = .0010453
INCLINATION    = 51.8797
RA_OF_ASC_NODE = 257.1821
ARG_OF_PERICENTER = 38.8406
MEAN_ANOMALY   = 321.3329

EPHEMERIS_TYPE = 0
CLASSIFICATION_TYPE = U
NORAD_CAT_ID   = 67771
ELEMENT_SET_NO = 999
REV_AT_EPOCH   = 388
BSTAR          = .92174E-3
MEAN_MOTION_DOT = .30587E-3
MEAN_MOTION_DDOT = 0

CCSDS_OMM_VERS = 2.0
CREATION_DATE  = 
ORIGINATOR     = 

OBJECT_NAME    = KUIPER-00200
OBJECT_ID      = 2026-030J
CENTER_NAME    = EARTH
REF_FRAME      = TEME
TIME_SYSTEM    = UTC
MEAN_ELEMENT_THEORY = SGP/SGP4

EPOCH          = 2026-03-01T19:24:03.276000
MEAN_MOTION    = 15.36638490
ECCENTRICITY   = .0001777
INCLINATION    = 51.8805
RA_OF_ASC_NODE = 256.9993
ARG_OF_PERICENTER = 196.4426
MEAN_ANOMALY   = 163.6503

EPHEMERIS_TYPE = 0
CLASSIFICATION_TYPE = U
NORAD_CAT_ID   = 67772
ELEMENT_SET_NO = 999
REV_AT_EPOCH   = 388
BSTAR          = .96246E-3
MEAN_MOTION_DOT = .34742E-3
MEAN_MOTION_DDOT = 0

CCSDS_OMM_VERS = 2.0
CREATION_DATE  = 
ORIGINATOR     = 

OBJECT_NAME    = KUIPER-00203
OBJECT_ID      = 2026-030K
CENTER_NAME    = EARTH
REF_FRAME      = TEME
TIME_SYSTEM    = UTC
MEAN_ELEMENT_THEORY = SGP/SGP4

EPOCH          = 2026-03-01T20:00:01.999008
MEAN_MOTION    = 15.29405899
ECCENTRICITY   = .0011994
INCLINATION    = 51.8800
RA_OF_ASC_NODE = 257.2608
ARG_OF_PERICENTER = 40.3973
MEAN_ANOMALY   = 260.1805

EPHEMERIS_TYPE = 0
CLASSIFICATION_TYPE = U
NORAD_CAT_ID   = 67773
ELEMENT_SET_NO = 999
REV_AT_EPOCH   = 244
BSTAR          = -.41714E-1
MEAN_MOTION_DOT = -.110703E-1
MEAN_MOTION_DDOT = 0

CCSDS_OMM_VERS = 2.0
CREATION_DATE  = 
ORIGINATOR     = 

OBJECT_NAME    = KUIPER-00205
OBJECT_ID      = 2026-030L
CENTER_NAME    = EARTH
REF_FRAME      = TEME
TIME_SYSTEM    = UTC
MEAN_ELEMENT_THEORY = SGP/SGP4

EPOCH          = 2026-03-01T19:34:53.376384
MEAN_MOTION    = 15.35986317
ECCENTRICITY   = .0002103
INCLINATION    = 51.8802
RA_OF_ASC_NODE = 257.0468
ARG_OF_PERICENTER = 359.3976
MEAN_ANOMALY   = 0.7008

EPHEMERIS_TYPE = 0
CLASSIFICATION_TYPE = U
NORAD_CAT_ID   = 67774
ELEMENT_SET_NO = 999
REV_AT_EPOCH   = 388
BSTAR          = .10306E-2
MEAN_MOTION_DOT = .3646E-3
MEAN_MOTION_DDOT = 0

CCSDS_OMM_VERS = 2.0
CREATION_DATE  = 
ORIGINATOR     = 

OBJECT_NAME    = KUIPER-00208
OBJECT_ID      = 2026-030M
CENTER_NAME    = EARTH
REF_FRAME      = TEME
TIME_SYSTEM    = UTC
MEAN_ELEMENT_THEORY = SGP/SGP4

EPOCH          = 2026-03-01T20:19:22.058976
MEAN_MOTION    = 15.32854452
ECCENTRICITY   = .0014395
INCLINATION    = 51.8826
RA_OF_ASC_NODE = 257.2520
ARG_OF_PERICENTER = 40.4892
MEAN_ANOMALY   = 319.7161

EPHEMERIS_TYPE = 0
CLASSIFICATION_TYPE = U
NORAD_CAT_ID   = 67775
ELEMENT_SET_NO = 999
REV_AT_EPOCH   = 388
BSTAR          = .91233E-3
MEAN_MOTION_DOT = .29211E-3
MEAN_MOTION_DDOT = 0

